XRISM                   
1 57800U 23137A   26076.43275825  .00003948  00000+0  22124-3 0  9990
2 57800  31.0006 233.5757 0007920 116.8888 243.2561 15.11587262138960
ACS3                    
1 59588U 24077B   26076.56134031  .00022880  00000+0  18212-1 0  9993
2 59588  97.2027  15.9044 0066552  57.9238 302.8366 13.89974410 95294
SZ-21 MODULE            
1 66515U 25246C   26076.58482274  .00029162  00000+0  24561-3 0  9993
2 66515  41.4741 154.7368 0000592 302.6268  57.4517 15.69175030 19313
